# From MPC 82723
273P/Pons-Gambart,e,136.7650,320.3996,20.3260,31.92096,0.0054650,0.97422670,0.0000,12/19.9702/2012,2000,g 11.5,4.0
# From MPEC 2022-H30
274P/Tombaugh-Tenagra,e,15.8157,81.3396,38.4694,4.375546,0.1076851,0.43934633,2.1035,04/28.0/2022,2000,g 13.0,4.0
# From MPC 81862
275P/Hermann,e,21.2757,348.7576,174.0103,5.775435,0.0710112,0.71260415,242.9814,04/28.0/2022,2000,g 17.0,4.0
# From MPEC 2020-K19
276P/Vorobjov,e,14.8101,211.3651,199.5685,5.322071,0.0802755,0.26757642,282.8732,04/28.0/2022,2000,g 11.5,4.0
# From MPEC 2021-F20
277P/LINEAR,e,16.7768,276.3297,152.3177,3.853471,0.1302945,0.50591917,63.0348,04/28.0/2022,2000,g 15.1,4.0
# From MPEC 2021-S45
278P/McNaught,e,6.6958,15.3819,237.8197,3.688402,0.1391383,0.43602046,82.5575,04/28.0/2022,2000,g 14.0,4.0
# From MPC100285
279P/La Sagra,e,5.0525,346.2331,5.8441,3.572996,0.1459336,0.39869159,307.9635,04/28.0/2022,2000,g 14.0,4.0
# From MPC 89013
280P/Larsen,e,11.7740,131.3933,104.7574,4.530039,0.1022236,0.41735494,312.5957,04/28.0/2022,2000,g 12.5,4.0
# From MPEC 2021-W31
281P/MOSS,e,4.7189,87.1805,26.6695,4.874630,0.0915781,0.17235003,334.3839,04/28.0/2022,2000,g 11.0,4.0
# From MPC133426
282P/,e,5.8117,9.2975,217.6324,4.239713,0.1129014,0.18838098,20.9274,04/28.0/2022,2000,g 13.5,2.0
# From MPEC 2021-BE3
283P/Spacewatch,e,14.4552,161.1292,22.2373,4.137282,0.1171201,0.48464765,27.1745,04/28.0/2022,2000,g 16.0,2.0
# From MPEC 2022-D36
284P/McNaught,e,11.8613,144.2614,202.4114,3.676164,0.1398337,0.37553901,31.8010,04/28.0/2022,2000,g 13.0,4.0
# From MPC 85339
285P/LINEAR,e,25.0383,185.5074,178.4381,4.507651,0.1029861,0.61857688,333.2866,04/28.0/2022,2000,g 15.0,4.0
# From MPEC 2021-O56
286P/Christensen,e,17.0444,283.9564,24.8577,4.110245,0.1182776,0.42558099,358.2678,04/28.0/2022,2000,g 14.0,4.0
# From MPC 96868
287P/Christensen,e,16.3200,139.0422,189.0501,4.163393,0.1160200,0.27104601,309.8078,04/28.0/2022,2000,g 13.5,4.0
# From MPC133426
288P/,e,3.2380,83.1300,280.2551,3.049938,0.1850408,0.20098231,10.5679,04/28.0/2022,2000,g 16.0,2.0
# From MPEC 2021-S45
289P/Blanpain,e,5.8968,68.8827,9.8454,3.046094,0.1853912,0.68569728,159.2496,04/28.0/2022,2000,g 19.0,4.0
# From MPC 95214
290P/Jager,e,20.0691,302.6811,181.8856,6.214912,0.0636138,0.62764483,191.6949,04/28.0/2022,2000,g 10.5,4.0
# From MPEC 2021-N06
291P/NEAT,e,6.2984,237.8375,173.6055,4.538725,0.1019303,0.43561639,322.0911,04/28.0/2022,2000,g 13.0,4.0
# From MPC115887
292P/Li,e,24.2763,90.9504,319.4842,6.104387,0.0653493,0.58905706,196.5387,04/28.0/2022,2000,g 12.5,4.0
# From MPEC 2021-S45
293P/Spacewatch,e,9.0576,78.3998,41.0008,3.642280,0.1417895,0.41824485,70.1679,04/28.0/2022,2000,g 14.5,4.0
# From MPEC 2020-SI8
294P/LINEAR,e,18.0607,312.1597,235.4801,3.190738,0.1729288,0.60142031,151.6412,04/28.0/2022,2000,g 15.5,4.0
# From MPC 93589
295P/LINEAR,e,21.0741,7.4381,72.8738,5.305969,0.0806412,0.61660137,235.1701,04/28.0/2022,2000,g 12.0,4.0
# From MPEC 2021-N06
296P/Garradd,e,25.2341,263.5789,350.0421,3.494002,0.1509105,0.47873412,88.6341,04/28.0/2022,2000,g 14.0,4.0
# From MPC102956
297P/Beshore,e,10.3137,97.5763,132.9004,3.450726,0.1537582,0.32023888,70.5731,04/28.0/2022,2000,g 15.0,4.0
# From MPC114609
298P/Christensen,e,7.8708,52.8218,100.6566,3.590756,0.1448523,0.38637275,86.7451,04/28.0/2022,2000,g 15.0,4.0
# From MPEC 2022-CN4
299P/Catalina-PANSTARRS,e,10.4702,271.6179,323.8266,4.386834,0.1072698,0.28108020,281.2609,04/28.0/2022,2000,g 11.5,4.0
# From MPEC 2022-ED3
300P/Catalina,e,5.6740,95.6372,222.9272,2.699540,0.2222130,0.69175727,282.6517,04/28.0/2022,2000,g 16.0,4.0
# From MPC 89014
301P/LINEAR-NEAT,e,10.3397,351.1748,193.6305,5.739612,0.0716771,0.58520346,200.9497,04/28.0/2022,2000,g 13.0,4.0
# From MPEC 2020-HN5
302P/Lemmon-PANSTARRS,e,6.0337,121.7462,208.3671,4.274586,0.1115226,0.23030546,243.4717,04/28.0/2022,2000,g 12.5,4.0
# From MPC 92278
303P/NEAT,e,7.0216,347.9720,356.9355,5.045432,0.0869674,0.51090008,238.8658,04/28.0/2022,2000,g 13.5,4.0
# From MPEC 2020-N08
304P/Ory,e,2.6071,58.9162,335.2453,3.150674,0.1762377,0.60075911,109.8734,04/28.0/2022,2000,g 16.5,4.0
# From MPC101100
305P/Skiff,e,11.6603,240.1039,147.3306,4.642124,0.0985437,0.69374412,267.9420,04/28.0/2022,2000,g 18.0,4.0
# From MPC 92278
306P/LINEAR,e,8.3112,341.3733,0.8671,3.123752,0.1785210,0.59329498,147.4438,04/28.0/2022,2000,g 19.0,4.0
# From MPC 92278
307P/LINEAR,e,4.4355,158.1670,222.1343,5.790912,0.0707267,0.67527255,189.7275,04/28.0/2022,2000,g 15.0,4.0
# From MPEC 2022-C56
308P/Lagerkvist-Carsenty,e,4.8528,63.0567,333.6124,6.601270,0.0581116,0.36414849,147.9721,04/28.0/2022,2000,g 13.0,2.0
# From MPC 94284
309P/LINEAR,e,17.0237,10.1465,49.9380,4.372520,0.1077969,0.61796975,284.4061,04/28.0/2022,2000,g 15.0,4.0
# From MPC 98566
310P/Hill,e,13.1278,8.9218,31.7831,4.180100,0.1153252,0.42212572,297.2253,04/28.0/2022,2000,g 13.5,4.0
# From MPEC 2021-BE3
311P/PANSTARRS,e,4.9697,279.2146,144.5271,2.188408,0.3044469,0.11572722,172.8113,04/28.0/2022,2000,g 17.0,4.0
# From MPEC 2021-BE3
312P/NEAT,e,19.7677,144.6701,207.6063,3.468320,0.1525898,0.42786931,88.4790,04/28.0/2022,2000,g 16.0,4.0
# From MPEC 2021-S45
313P/Gibbs,e,10.9806,105.9690,254.7812,3.163566,0.1751615,0.23503487,130.0026,04/28.0/2022,2000,g 15.0,4.0
# From MPC105243
314P/Montani,e,3.9828,267.6072,214.0140,7.262822,0.0503554,0.41625941,102.1558,04/28.0/2022,2000,g  9.5,4.0
# From MPEC 2021-N06
315P/LONEOS,e,17.7417,68.8226,65.7301,4.940009,0.0897661,0.52096044,177.6491,04/28.0/2022,2000,g 11.0,4.0
# From MPC 92279
316P/LONEOS-Christensen,e,9.8268,246.4417,192.5461,4.373661,0.1077547,0.15602731,259.6265,04/28.0/2022,2000,g 13.5,4.0
# From MPEC 2020-C98
317P/WISE,e,11.9513,275.4918,334.8568,2.963023,0.1932420,0.57050211,111.8738,04/28.0/2022,2000,g 17.5,4.0
# From MPC102103
318P/McNaught-Hartley,e,17.8843,35.5348,313.2625,7.501454,0.0479718,0.67528960,113.9920,04/28.0/2022,2000,g  8.5,6.0
# From MPC 97499
319P/Catalina-McNaught,e,15.0947,111.3697,203.6776,3.567058,0.1462981,0.66667884,4.0332,04/28.0/2022,2000,g 15.0,4.0
# From MPC 96281
320P/McNaught,e,4.9080,295.9370,0.7821,3.093754,0.1811237,0.68554096,84.3884,04/28.0/2022,2000,g 20.5,4.0
# From MPC105243
321P/SOHO,e,20.0927,165.0172,172.7486,2.423435,0.2612504,0.98111145,0.0000,10/26.5131/2023,2000,g 20.0,4.0
# From MPC102103
322P/SOHO,e,11.4681,351.5302,56.8722,2.507863,0.2481695,0.97991137,0.0000,08/21.0848/2023,2000,g 19.0,4.0
# From MPEC 2016-Y36
323P/SOHO,e,5.3340,324.3856,353.0510,2.583061,0.2374117,0.98481832,0.0000,01/17.7997/2021,2000,g 20.0,4.0
# From MPEC 2021-W31
324P/LaSagra,e,21.4042,270.5852,57.5368,3.094555,0.1810534,0.15388952,64.7770,04/28.0/2022,2000,g 13.0,4.0
# From MPEC 2022-H30
325P/Yang-Gao,e,16.6944,257.5597,343.7034,3.522781,0.1490650,0.59338303,4.4436,04/28.0/2022,2000,g 14.0,4.0
# From MPC103849
326P/Hill,e,2.4710,99.8089,278.6285,4.062717,0.1203592,0.31807481,286.3944,04/28.0/2022,2000,g 13.5,4.0
# From MPC 97499
327P/Van Ness,e,36.2512,173.9849,185.0459,3.562483,0.1465800,0.56321944,341.3209,04/28.0/2022,2000,g 16.0,4.0
# From MPC109148
328P/LONEOS-Tucker,e,17.6731,341.6349,30.5265,4.192739,0.1148041,0.55255204,265.6416,04/28.0/2022,2000,g 14.5,4.0
# From MPC101101
329P/LINEAR-Catalina,e,21.6883,87.6632,343.5303,5.189751,0.0833651,0.67770128,195.1362,04/28.0/2022,2000,g 13.5,4.0
# From MPC105243
330P/Catalina,e,15.7002,293.0889,188.8964,6.625108,0.0577982,0.54844818,119.7288,04/28.0/2022,2000,g 12.0,4.0
# From MPEC 2022-C56
331P/Gibbs,e,9.7381,216.7592,184.2776,3.005163,0.1891917,0.04115150,108.3688,04/28.0/2022,2000,g 12.0,4.0
# From MPEC 2016-K18
332P/Ikeya-Murakami,e,9.3800,3.7862,152.3251,3.088570,0.1815800,0.48938669,45.8697,04/28.0/2022,2000,g 18.0,4.0
# From MPEC 2016-EI8
332P-B/Ikeya-Murakami,e,9.3805,3.8028,152.3711,3.082329,0.1821317,0.48970701,359.9699,03/17.0/2016,2000,g 19.0,4.0
# From MPEC 2016-K18
332P-C/Ikeya-Murakami,e,9.3791,3.7866,152.3163,3.088536,0.1815830,0.48939215,45.8846,04/28.0/2022,2000,g 16.5,4.0
# From MPEC 2016-ED0
332P-D/Ikeya-Murakami,e,9.3761,3.7923,152.4393,3.081138,0.1822373,0.48977814,359.9486,03/17.0/2016,2000,g 19.0,4.0
# From MPEC 2016-ED0
332P-E/Ikeya-Murakami,e,9.3774,3.8228,152.2825,3.079877,0.1823493,0.48922008,359.9889,03/17.0/2016,2000,g 21.0,4.0
# From MPEC 2016-ED0
332P-F/Ikeya-Murakami,e,9.5293,3.4757,152.8203,3.163214,0.1751908,0.49918860,359.8501,03/17.0/2016,2000,g 21.0,4.0
# From MPEC 2016-ED0
332P-G/Ikeya-Murakami,e,9.2523,3.6955,154.4000,3.050519,0.1849880,0.49200362,359.9006,03/19.0/2016,2000,g 19.0,4.0
# From MPC100285
332P-H/Ikeya-Murakami,e,9.3796,3.7863,152.3170,3.088721,0.1815667,0.48942738,45.8155,04/28.0/2022,2000,g 19.0,4.0
# From MPEC 2016-ED0
332P-I/Ikeya-Murakami,e,9.3791,3.8048,152.3297,3.081767,0.1821815,0.48955490,359.9360,03/17.0/2016,2000,g 20.5,2.0
# From MPEC 2016-EI8
332P-J/Ikeya-Murakami,e,9.4296,3.6729,152.7712,3.115165,0.1792596,0.49429435,359.8613,03/17.0/2016,2000,g 20.5,2.0
# From MPEC 2020-L06
333P/LINEAR,e,131.9924,115.6390,25.9878,4.220426,0.1136762,0.73662416,252.4475,04/28.0/2022,2000,g 15.0,4.0
# From MPC115888
334P/NEAT,e,20.4084,90.6240,90.1184,6.838226,0.0551174,0.35073433,98.5529,04/28.0/2022,2000,g 10.5,4.0
# From MPEC 2021-U31
335P/Gibbs,e,7.2934,330.8467,162.3118,3.577257,0.1456729,0.54606716,344.5562,04/28.0/2022,2000,g 17.0,4.0
# From MPC105244
336P/McNaught,e,17.8306,298.2499,308.7421,5.034616,0.0872478,0.44439288,166.8246,04/28.0/2022,2000,g 13.5,4.0
# From MPEC 2022-H04
337P/WISE,e,15.3711,106.0613,161.0296,3.285843,0.1654756,0.49660636,349.3840,04/28.0/2022,2000,g 17.0,4.0
# From MPC104796
338P/McNaught,e,25.3856,9.7978,4.4434,3.895348,0.1281990,0.41191945,253.8766,04/28.0/2022,2000,g 12.0,4.0
# From MPC101101
339P/Gibbs,e,5.7333,172.7242,27.4877,3.698291,0.1385806,0.63547818,292.0915,04/28.0/2022,2000,g 17.0,4.0
# From MPC133426
340P/Boattini,e,2.0784,291.6931,35.9334,4.250609,0.1124676,0.28085952,223.0083,04/28.0/2022,2000,g 14.3,4.0
# From MPEC 2021-BE3
341P/Gibbs,e,3.7968,29.9693,312.2221,4.291860,0.1108500,0.41572131,239.1772,04/28.0/2022,2000,g 12.5,4.0
